sat44382
1 44382U 19006DD  20046.81485255  .00047622  13241-5  43283-3 0  9997
2 44382  94.6816 190.9467 0415695 312.0894  44.5671 15.03970318 41290
